{"type":"FeatureCollection","features":[{"type":"Feature","properties":{"@id":"node/266071059","amenity":"restaurant","check_date:opening_hours":"2023-05-20","cuisine":"indian;thai;international","delivery":"Mo-Sa 11:00-21:30;Su 12:00-20:00","diet:vegan":"yes","diet:vegetarian":"yes","email":"ind-s-staatsbruecke@soulkitchen.world","indoor_seating":"yes","name":"my Indigo Staatsbrücke","opening_hours":"Mo-Sa 11:00-22:00; Su 12:00-21:00","outdoor_seating":"yes","phone":"+43-662-843480","smoking":"outside","takeaway":"yes","wheelchair":"no"},"geometry":{"type":"Point","coordinates":[13.045302,47.8002674]},"id":"node/266071059"},{"type":"Feature","properties":{"@id":"node/268056323","amenity":"restaurant","cuisine":"asian","diet:vegan":"yes","diet:vegetarian":"yes","indoor_seating":"yes","name":"Japan Restaurant","opening_hours":"Mo-Su 10:00-21:00","outdoor_seating":"yes","wheelchair":"no"},"geometry":{"type":"Point","coordinates":[13.0467797,47.8031766]},"id":"node/268056323"},{"type":"Feature","properties":{"@id":"node/268056333","addr:city":"Salzburg","addr:country":"AT","addr:housenumber":"21A","addr:street":"Bergstraße","amenity":"restaurant","cuisine":"italian_pizza","indoor_seating":"yes","name":"Casa Napoli","opening_hours":"Mo-Sa 11:30-23:00","outdoor_seating":"yes","phone":"0662 454296","website":"http://www.casa-napoli.at/"},"geometry":{"type":"Point","coordinates":[13.0449625,47.8036863]},"id":"node/268056333"},{"type":"Feature","properties":{"@id":"node/268056341","addr:city":"Salzburg","addr:housenumber":20,"addr:postcode":5020,"addr:street":"Priesterhausgasse","amenity":"restaurant","capacity":50,"contact:email":"hello@diecabreras.com","contact:phone":"+43 699 10886555","contact:website":"https://www.diecabreras.com/","cuisine":"mexican","name":"Die Cabreras","opening_hours":"Tu-Fr 16:00-22:00, Sa 10:00 - 22:00","reservation":"yes","wheelchair":"yes"},"geometry":{"type":"Point","coordinates":[13.045115,47.8034423]},"id":"node/268056341"},{"type":"Feature","properties":{"@id":"node/288838629","addr:city":"Salzburg","addr:country":"AT","addr:housenumber":"19c","addr:postcode":5020,"addr:street":"Mönchsberg","alt_name":"Stadtalm","amenity":"restaurant","contact:phone":"+43 662 841729","cuisine":"austrian","diet:vegan":"no","diet:vegetarian":"yes","name":"Stadt Alm","opening_hours":"Jan-May: Mo-Su,PH 10:00-18:00;Jun-Aug: Mo-Su,PH 10:00-22:00;Sep-Oct: Mo-Su,PH 10:00-18:00;Nov-Dec: Mo-Su,PH 10:00-17:00","opening_hours:kitchen":"Mo-Fr 11:30-15:45; Sa,Su 11:30-16:45","operator":"Peter Esterer","outdoor_seating":"yes","phone":"+43 662 841729","tourism":"hostel","website":"https://www.stadtalm.at/","wheelchair":"yes"},"geometry":{"type":"Point","coordinates":[13.0392385,47.7997381]},"id":"node/288838629"},{"type":"Feature","properties":{"@id":"node/446007242","addr:city":"Salzburg","addr:housenumber":62,"addr:postcode":5020,"addr:street":"Siezenheimer Straße","amenity":"restaurant","brewery":"Stiegl","cuisine":"east_asian","name":"Pan Asia","opening_hours":"Tu-Su,PH 11:30-14:30,17:30-23:00","phone":"+43 662 43 42 91","wheelchair":"no"},"geometry":{"type":"Point","coordinates":[13.0015493,47.8071885]},"id":"node/446007242"},{"type":"Feature","properties":{"@id":"node/467150207","amenity":"restaurant","cuisine":"italian","name":"Sto Bene","wheelchair":"no"},"geometry":{"type":"Point","coordinates":[13.0488221,47.7979803]},"id":"node/467150207"},{"type":"Feature","properties":{"@id":"node/470857538","addr:city":"Salzburg","addr:country":"AT","addr:housenumber":34,"addr:postcode":5020,"addr:street":"Neutorstraße","amenity":"restaurant","check_date":"2023-07-04","cuisine":"greek","diet:vegetarian":"yes","email":"restaurant.irodion.salzburg@gmail.com","indoor_seating":"yes","name":"Irodion","opening_hours":"Mo-Sa 11:00-15:00,17:00-00:00; Su 11:00-15:00,17:00-24:00; PH 11:00-24:00","outdoor_seating":"yes","phone":"+43 662 842918","reservation":"recommended","toilets:wheelchair":"no","website":"http://irodion-salzburg.at","wheelchair":"yes"},"geometry":{"type":"Point","coordinates":[13.0302833,47.7980147]},"id":"node/470857538"},{"type":"Feature","properties":{"@id":"node/479173768","amenity":"restaurant","cuisine":"chinese","name":"Süd Garden"},"geometry":{"type":"Point","coordinates":[13.0707202,47.7731812]},"id":"node/479173768"},{"type":"Feature","properties":{"@id":"node/623053826","amenity":"restaurant","cuisine":"thai","name":"Marchhart's","opening_hours":"Tu-Sa 12:00-23:00","website":"https://www.marchharts.com/"},"geometry":{"type":"Point","coordinates":[13.0367412,47.7889688]},"id":"node/623053826"},{"type":"Feature","properties":{"@id":"node/676197145","amenity":"restaurant","cuisine":"italian","name":"Pizzeria Da Ciro","website":"https://www.pizzeria-daciro.at/"},"geometry":{"type":"Point","coordinates":[13.0595557,47.8114551]},"id":"node/676197145"},{"type":"Feature","properties":{"@id":"node/694205003","addr:city":"Salzburg","addr:country":"AT","addr:housenumber":36,"addr:postcode":5020,"addr:street":"Linzer Gasse","amenity":"restaurant","cuisine":"japanese","indoor_seating":"yes","name":"Nagano","outdoor_seating":"yes"},"geometry":{"type":"Point","coordinates":[13.0468322,47.8032461]},"id":"node/694205003"},{"type":"Feature","properties":{"@id":"node/790712256","addr:city":"Salzburg","addr:housenumber":112,"addr:postcode":5020,"addr:street":"Alpenstraße","amenity":"restaurant","cuisine":"italian","email":"office@pizzeria-magno.at","name":"Ristorante Pizza e Pasta Magno","opening_hours":"Tu-Su 11:00-14:00,16:30-22:00","website":"https://www.pizzeria-magno.at/"},"geometry":{"type":"Point","coordinates":[13.0678221,47.7748653]},"id":"node/790712256"},{"type":"Feature","properties":{"@id":"node/795676178","amenity":"restaurant","cuisine":"italian","diet:vegan":"no","diet:vegetarian":"yes","name":"Osteria Cavalli","website":"https://www.osteria-cavalli.at/","wheelchair":"no"},"geometry":{"type":"Point","coordinates":[13.0325585,47.7974646]},"id":"node/795676178"},{"type":"Feature","properties":{"@id":"node/814217483","addr:city":"Salzburg","addr:country":"AT","addr:housenumber":24,"addr:postcode":5020,"addr:street":"Getreidegasse","amenity":"restaurant","cuisine":"chinese","diet:vegan":"yes","diet:vegetarian":"yes","indoor_seating":"yes","name":"Yuen China Restaurant","opening_hours":"Tu-Su 11:30-14:30,17:30-21:30","outdoor_seating":"yes","payment:credit_cards":"yes","payment:debit_cards":"yes","smoking":"outside","wheelchair":"no"},"geometry":{"type":"Point","coordinates":[13.0423762,47.8003489]},"id":"node/814217483"},{"type":"Feature","properties":{"@id":"node/814235265","addr:city":"Salzburg","addr:country":"AT","addr:housenumber":14,"addr:postcode":5020,"addr:street":"Getreidegasse","amenity":"restaurant","cuisine":"italian","diet:vegetarian":"yes","indoor_seating":"yes","name":"Pizza, Pasta, Spaghetti & Co","opening_hours":"Mo-Su 11:00-22:00","outdoor_seating":"no","payment:credit_cards":"yes","payment:debit_cards":"yes","wheelchair":"no"},"geometry":{"type":"Point","coordinates":[13.0429729,47.8001529]},"id":"node/814235265"},{"type":"Feature","properties":{"@id":"node/814235321","amenity":"restaurant","cuisine":"italian","diet:vegetarian":"yes","indoor_seating":"yes","name":"Pizzeria il Sole","opening_hours":"Mo-Su 11:30-15:30,17:30-24:00","outdoor_seating":"no","wheelchair":"limited"},"geometry":{"type":"Point","coordinates":[13.0389575,47.8009881]},"id":"node/814235321"},{"type":"Feature","properties":{"@id":"node/814276669","addr:city":"Salzburg","addr:country":"AT","addr:housenumber":23,"addr:postcode":5020,"addr:street":"Linzer Gasse","amenity":"restaurant","check_date":"2023-07-19","cuisine":"italian;pizza","indoor_seating":"yes","name":"Pizzeria Il Centro II","outdoor_seating":"yes","phone":"+43 662 878284","website":"https://pizzeria-ilcentro.at/","wheelchair":"no"},"geometry":{"type":"Point","coordinates":[13.0465494,47.8031478]},"id":"node/814276669"},{"type":"Feature","properties":{"@id":"node/818635313","addr:city":"Salzburg","addr:country":"AT","addr:housenumber":3,"addr:postcode":5020,"addr:street":"Eberhard-Fugger-Straße","amenity":"restaurant","cuisine":"asian;sushi;seafood","indoor_seating":"yes","name":"Shiso","opening_hours":"11:30-15:00,17:30-23:00","outdoor_seating":"yes","website":"http://www.shiso-restaurant.com/"},"geometry":{"type":"Point","coordinates":[13.0666072,47.802277]},"id":"node/818635313"},{"type":"Feature","properties":{"@id":"node/825567280","amenity":"restaurant","check_date":"2023-07-18","cuisine":"burger;italian;chinese","indoor_seating":"yes","name":"Pizzeria&Co.","opening_hours":"Mo-Fr 10:00-18:00; Sa 10:00-17:00","outdoor_seating":"yes"},"geometry":{"type":"Point","coordinates":[13.047351,47.80382]},"id":"node/825567280"}]}